satname,norad_id,inclination_deg,eccentricity,mean_motion_rev_per_day,perigee_km,apogee_km,l1,l2
STARLINK-1316,45415,53.1567,0.0003872,15.40090268,443.2004146233958,448.48490447175027,1 45415U 20019BH  26173.23677308  .00041552  00000+0  10270-2 0  9994,2 45415  53.1567   0.0502 0003872 130.2186 229.9159 15.40090268346056
STARLINK-1286,45417,53.0455,0.0002673,15.65704076,369.4105042918536,373.0187076604079,1 45417U 20019BK  26173.74616584  .00051018  00000+0  49805-3 0  9996,2 45417  53.0455 341.2190 0002673 295.1784  64.8953 15.65704076346592
STARLINK-1308,45419,53.0469,0.0006413,15.67134832,362.7802603663067,371.43170901847407,1 45419U 20019BM  26173.24740882  .00041539  00000+0  38399-3 0  9995,2 45419  53.0469   2.9076 0006413  87.4291 272.7458 15.67134832345996
STARLINK-1329,45531,53.041,0.0001668,15.75249616,342.7997246162704,345.04220315302246,1 45531U 20025A   26173.67516049  .00053866  00000+0  35311-3 0  9997,2 45531  53.0410 283.6628 0001668 284.0408  76.0425 15.75249616341924
STARLINK-1338,45532,53.0425,0.0002037,15.72497196,350.39176493109426,353.1335260466658,1 45532U 20025B   26173.83335648 -.00023924  00000+0 -17158-3 0  9993,2 45532  53.0425 290.0831 0002037  61.6655  61.7541 15.72497196  5958
STARLINK-1350,45535,53.0704,0.0001215,15.38556717,449.5467606996781,451.20608946197353,1 45535U 20025E   26173.71491478  .00019290  00000+0  50825-3 0  9994,2 45535  53.0704 258.9479 0001215  60.5130 299.5994 15.38556717342319
STARLINK-1362,45538,53.1576,0.0003434,15.38612713,447.86589231655853,452.5556015491511,1 45538U 20025H   26173.42214942  .00015220  00000+0  40264-3 0  9999,2 45538  53.1576 331.6971 0003434 246.9197 113.1446 15.38612713341258
STARLINK-1368,45540,53.1576,0.0002385,15.38784965,448.0727199771991,451.3295987792226,1 45540U 20025K   26173.69417087  .00039065  00000+0  10087-2 0  9998,2 45540  53.1576 330.7723 0002385 215.1968 144.8879 15.38784965341287
STARLINK-1371,45542,53.0422,0.0001463,15.69781125,358.5375058888758,360.50894527087985,1 45542U 20025M   26173.83335648  .00013679  00000+0  11723-3 0  9990,2 45542  53.0422 300.2866 0001463  62.6438 324.1595 15.69781125  5993
STARLINK-1372,45543,53.1575,0.0001551,15.39261574,447.23288319725543,449.3504413682949,1 45543U 20025N   26173.71306643  .00043994  00000+0  11165-2 0  9993,2 45543  53.1575 330.1310 0001551 211.1166 148.9747 15.39261574340392
STARLINK-1373,45544,53.044,0.0001935,15.71456054,353.4320284985233,356.0376499002932,1 45544U 20025P   26173.75312082  .00051581  00000+0  39790-3 0  9998,2 45544  53.0440 295.5698 0001935  53.7488 306.3708 15.71456054341763
STARLINK-1327,45555,53.0398,0.0001871,15.73118849,348.7307162533434,351.248381207879,1 45555U 20025AA  26173.83335648 -.00057811  00000+0 -41163-3 0  9993,2 45555  53.0398 272.5503 0001871  59.0801  46.6902 15.73118849  6008
STARLINK-1356,45564,53.0422,0.0002542,15.66398779,367.5037075129994,370.9340632451267,1 45564U 20025AK  26173.60804913  .00039324  00000+0  37511-3 0  9993,2 45564  53.0422 287.1256 0002542 353.5417   6.5565 15.66398779341864
STARLINK-1357,45565,53.0429,0.0002191,15.7110654,354.25795707671114,357.20873906323595,1 45565U 20025AL  26173.47099084  .00047562  00000+0  37284-3 0  9994,2 45565  53.0429 244.0468 0002191 145.2635 214.8525 15.71106540342463
STARLINK-1361,45567,53.0425,0.0001635,15.69875349,358.1520630376899,360.3551897725238,1 45567U 20025AN  26173.83335648  .00059181  00000+0  48645-3 0  9998,2 45567  53.0425 284.4051 0001635  70.8811 100.9023 15.69875349  5931
STARLINK-1376,45570,53.1571,0.0001198,15.39673075,446.25763654463026,447.89295741098704,1 45570U 20025AR  26173.36174750  .00042165  00000+0  10564-2 0  9997,2 45570  53.1571 308.1474 0001198 192.2460 167.8516 15.39673075341575
STARLINK-1320,45572,53.0385,0.0009437,15.91233695,292.5284415998067,305.13054816224576,1 45572U 20025AT  26173.27568125  .00150622  19489-4  46946-3 0  9990,2 45572  53.0385 182.0351 0009437  24.6489 335.4986 15.91233695343322
STARLINK-1321,45573,53.0405,0.0001682,15.70318398,356.85329441544127,359.1193262970455,1 45573U 20025AU  26173.83335648 -.00044188  00000+0 -35264-3 0  9991,2 45573  53.0405 268.2381 0001682  71.4734  77.5421 15.70318398  5990
STARLINK-1331,45578,53.0446,0.0001464,15.70023255,357.8441915271005,359.8167756062894,1 45578U 20025AZ  26173.83335648  .00044622  00000+0  36637-3 0  9992,2 45578  53.0446 275.1677 0001464  79.8913 287.3726 15.70023255  5998
STARLINK-1333,45580,53.1572,0.0001379,15.36597104,455.2383139917092,457.12321883168534,1 45580U 20025BB  26173.76327378  .00039880  00000+0  11050-2 0  9999,2 45580  53.1572 308.0901 0001379 287.2082  72.8770 15.36597104341614
STARLINK-1335,45581,53.1548,0.0002196,15.38282837,449.6871927243392,452.68663178660245,1 45581U 20025BC  26173.64660738  .00037417  00000+0  98272-3 0  9993,2 45581  53.1548 305.1781 0002196 201.6155 158.4756 15.38282837341634
STARLINK-1337,45582,53.0428,0.0002026,15.76728601,338.3557037907294,341.07777812656605,1 45582U 20025BD  26173.84963776  .00069792  00000+0  42685-3 0  9992,2 45582  53.0428 263.3142 0002026 100.6390 259.4858 15.76728601342214
STARLINK-1347,45586,53.0365,8.87e-05,15.70145574,357.8830545361843,359.07813049709785,1 45586U 20025BH  26173.45311794  .00045960  00000+0  37524-3 0  9997,2 45586  53.0365 236.4292 0000887  26.1402 333.9659 15.70145574342554
STARLINK-1364,45589,53.0414,0.0002675,15.70930752,354.4342431613095,358.03713254931245,1 45589U 20025BL  26173.45366602  .00044855  00000+0  35458-3 0  9994,2 45589  53.0414 273.0504 0002675 351.6006   8.4965 15.70930752342046
STARLINK-1365,45590,53.0441,0.0001078,15.66531945,368.10917508355396,369.5638225699022,1 45590U 20025BM  26173.83335648  .00048276  00000+0  45638-3 0  9996,2 45590  53.0441 306.2866 0001078  80.3526 182.2155 15.66531945  5872
STARLINK-1443,45660,53.1341,0.0001265,15.33806814,463.6012928026639,465.33247158485847,1 45660U 20035D   26173.72087157  .00038539  00000+0  11676-2 0  9997,2 45660  53.1341 297.2599 0001265  55.0563 305.0558 15.33806814334837
STARLINK-1446,45663,53.0205,0.0001627,15.48494149,420.024276714008,422.23675836421535,1 45663U 20035G   26173.31406334  .00022719  00000+0  42728-3 0  9993,2 45663  53.0205 220.4311 0001627 307.0173  53.0684 15.48494149335850
STARLINK-1448,45665,53.0417,0.0002105,15.74183568,345.5398055937694,348.37106950997804,1 45665U 20035J   26173.83335648 -.00068576  00000+0 -46771-3 0  9996,2 45665  53.0417 258.5680 0002105  71.3863 104.4166 15.74183568  6004
STARLINK-1451,45668,53.0528,4.49e-05,15.14901643,520.9673959322508,521.5869633255816,1 45668U 20035M   26173.41203806  .00017749  00000+0  95592-3 0  9992,2 45668  53.0528 311.4309 0000449 159.5299 200.5712 15.14901643334597
STARLINK-1452,45669,53.0236,0.0007123,15.61532012,378.41497435401106,388.0472193447822,1 45669U 20035N   26173.45539288  .00085355  00000+0  97227-3 0  9998,2 45669  53.0236 236.5492 0007123 359.3680   0.7322 15.61532012335640
STARLINK-1453,45670,53.0374,0.0001422,15.74449633,345.2415704337909,347.15397124261654,1 45670U 20035P   26173.83335648  .00058874  00000+0  39891-3 0  9995,2 45670  53.0374 218.7986 0001422  77.7598 304.7432 15.74449633  6015
STARLINK-1454,45671,53.0409,0.0001268,15.72720231,350.2730936208327,351.97963480999897,1 45671U 20035Q   26173.83335648 -.00020509  00000+0 -14501-3 0  9993,2 45671  53.0409 259.9805 0001268  74.9275 342.2563 15.72720231  5959
STARLINK-1456,45673,53.0396,0.0001221,15.69615533,359.17436619901673,360.81981854437436,1 45673U 20035S   26173.83335648 -.00035044  00000+0 -28669-3 0  9995,2 45673  53.0396 254.7077 0001221  64.9134 102.0379 15.69615533  5942
STARLINK-1458,45675,53.0452,0.0003,15.5961011,386.7545534137698,390.8147063917113,1 45675U 20035U   26172.56180304  .00094714  00000+0  11603-2 0  9999,2 45675  53.0452 276.4196 0003000 356.4668   3.6322 15.59610110334975
STARLINK-1460,45676,53.1563,0.0002245,15.36429175,455.14432712795224,458.21315939667693,1 45676U 20035V   26173.61056424  .00051829  00000+0  14383-2 0  9990,2 45676  53.1563 296.0136 0002245 274.4883  85.5863 15.36429175334805
STARLINK-1392,45677,53.1532,0.0002843,15.3985295,444.6035137385552,448.48402722465016,1 45677U 20035W   26173.59618657  .00043878  00000+0  10922-2 0  9990,2 45677  53.1532 294.3570 0002843 298.5112  61.5607 15.39852950334861
STARLINK-1394,45679,53.0386,0.0001108,15.68441738,362.6115184491491,364.1054338466638,1 45679U 20035Y   26173.83335648 -.00035693  00000+0 -30671-3 0  9997,2 45679  53.0386 245.0296 0001108  72.8600  56.0915 15.68441738  5995
STARLINK-1402,45685,53.0397,0.0004193,15.59939964,384.99370207384436,390.6676425638507,1 45685U 20035AE  26173.18466281  .00033949  00000+0  41775-3 0  9997,2 45685  53.0397 239.8330 0004193 286.6892  73.3659 15.59939964335580
STARLINK-1404,45686,53.156,0.0003139,15.46171582,425.8013573390126,430.07421108854305,1 45686U 20035AF  26173.01181494  .00028082  00000+0  56974-3 0  9999,2 45686  53.1560 278.1139 0003139 283.5797  76.4861 15.46171582335046
STARLINK-1413,45689,53.155,0.0002968,15.36389519,454.76774423194547,458.824960669961,1 45689U 20035AJ  26173.58489220  .00037463  00000+0  10458-2 0  9991,2 45689  53.1550 280.7850 0002968 302.7311  57.3406 15.36389519334976
STARLINK-1417,45693,53.0509,0.0002994,15.1747002,511.42661098038934,515.5533172064879,1 45693U 20035AN  26173.61743513  .00011234  00000+0  56877-3 0  9992,2 45693  53.0509 296.8846 0002994 192.0680 168.0243 15.17470020334803
STARLINK-1420,45695,53.0428,0.0001778,15.7210208,351.69343755362024,354.086990830986,1 45695U 20035AQ  26173.83335648 -.00075842  00000+0 -56669-3 0  9990,2 45695  53.0428 227.8822 0001778  88.0824 126.5894 15.72102080  6015
STARLINK-1422,45696,53.1558,0.000285,15.3650547,454.5046287334526,458.40034474089316,1 45696U 20035AR  26173.39350117  .00151021  00000+0  41060-2 0  9990,2 45696  53.1558 281.6391 0002850   4.2095 355.8932 15.36505470335028
